[{"OBJECT_NAME":"STARLINK-36109","OBJECT_ID":"2025-286U","EPOCH":"2026-03-09T23:14:42.804672","MEAN_MOTION":15.3021639,"ECCENTRICITY":0.0001592,"INCLINATION":53.1605,"RA_OF_ASC_NODE":356.8575,"ARG_OF_PERICENTER":118.9935,"MEAN_ANOMALY":241.1226,"EPHEMERIS_TYPE":0,"CLASSIFICATION_TYPE":"U","NORAD_CAT_ID":66943,"ELEMENT_SET_NO":999,"REV_AT_EPOCH":1539,"BSTAR":0.00097796483,"MEAN_MOTION_DOT":0.00028732,"MEAN_MOTION_DDOT":0},{"OBJECT_NAME":"CZ-4B R\/B","OBJECT_ID":"2010-051C","EPOCH":"2026-03-09T16:48:37.977120","MEAN_MOTION":15.17426017,"ECCENTRICITY":0.00758037,"INCLINATION":97.7974,"RA_OF_ASC_NODE":110.8647,"ARG_OF_PERICENTER":95.044,"MEAN_ANOMALY":265.9451,"EPHEMERIS_TYPE":0,"CLASSIFICATION_TYPE":"U","NORAD_CAT_ID":37181,"ELEMENT_SET_NO":999,"REV_AT_EPOCH":84355,"BSTAR":0.00029718512,"MEAN_MOTION_DOT":6.328e-5,"MEAN_MOTION_DDOT":0}]
